CZ-2C R/B               
1 54039U 22132E   25347.95804434  .00035217  00000+0  52092-3 0  9997
2 54039  97.2945 344.1799 0022938  53.2769 307.0587 15.54915643177022
GSLV R/B                
1 54149U 22138AN  25347.85903460  .00004076  00000+0  35773-3 0  9999
2 54149  87.3830 195.0994 0024142 101.8051 258.5890 14.96139854171095
XRISM                   
1 57800U 23137A   25347.69335788  .00005673  00000+0  33153-3 0  9994
2 57800  31.0010 119.3858 0007693 255.1038 104.8748 15.10352051124777
ACS3                    
1 59588U 24077B   25347.90942339  .00032116  00000+0  27396-1 0  9995
2 59588  97.2661 303.2547 0077298 335.5702  24.1804 13.85569397 82308
SZ-21 MODULE            
1 66515U 25246C   25347.24231733  .00039667  00000+0  43386-3 0  9995
2 66515  41.4775  12.9802 0006286 263.0797  96.9328 15.62521016  4528
