CCSDS_OMM_VERS = 2.0
CREATION_DATE  = 
ORIGINATOR     = 

OBJECT_NAME    = CZ-2C R/B
OBJECT_ID      = 2022-132E
CENTER_NAME    = EARTH
REF_FRAME      = TEME
TIME_SYSTEM    = UTC
MEAN_ELEMENT_THEORY = SGP/SGP4

EPOCH          = 2025-12-13T22:59:35.030976
MEAN_MOTION    = 15.54915643
ECCENTRICITY   = .00229381
INCLINATION    = 97.2945
RA_OF_ASC_NODE = 344.1799
ARG_OF_PERICENTER = 53.2769
MEAN_ANOMALY   = 307.0587

EPHEMERIS_TYPE = 0
CLASSIFICATION_TYPE = U
NORAD_CAT_ID   = 54039
ELEMENT_SET_NO = 999
REV_AT_EPOCH   = 17702
BSTAR          = .52092192E-3
MEAN_MOTION_DOT = .35217E-3
MEAN_MOTION_DDOT = 0

CCSDS_OMM_VERS = 2.0
CREATION_DATE  = 
ORIGINATOR     = 

OBJECT_NAME    = GSLV R/B
OBJECT_ID      = 2022-138AN
CENTER_NAME    = EARTH
REF_FRAME      = TEME
TIME_SYSTEM    = UTC
MEAN_ELEMENT_THEORY = SGP/SGP4

EPOCH          = 2025-12-13T20:37:00.589440
MEAN_MOTION    = 14.96139854
ECCENTRICITY   = .00241421
INCLINATION    = 87.3830
RA_OF_ASC_NODE = 195.0994
ARG_OF_PERICENTER = 101.8051
MEAN_ANOMALY   = 258.5890

EPHEMERIS_TYPE = 0
CLASSIFICATION_TYPE = U
NORAD_CAT_ID   = 54149
ELEMENT_SET_NO = 999
REV_AT_EPOCH   = 17109
BSTAR          = .3577275E-3
MEAN_MOTION_DOT = .4076E-4
MEAN_MOTION_DDOT = 0

CCSDS_OMM_VERS = 2.0
CREATION_DATE  = 
ORIGINATOR     = 

OBJECT_NAME    = XRISM
OBJECT_ID      = 2023-137A
CENTER_NAME    = EARTH
REF_FRAME      = TEME
TIME_SYSTEM    = UTC
MEAN_ELEMENT_THEORY = SGP/SGP4

EPOCH          = 2025-12-13T16:38:26.120832
MEAN_MOTION    = 15.10352051
ECCENTRICITY   = .00076936
INCLINATION    = 31.0010
RA_OF_ASC_NODE = 119.3858
ARG_OF_PERICENTER = 255.1038
MEAN_ANOMALY   = 104.8748

EPHEMERIS_TYPE = 0
CLASSIFICATION_TYPE = U
NORAD_CAT_ID   = 57800
ELEMENT_SET_NO = 999
REV_AT_EPOCH   = 12477
BSTAR          = .33152984E-3
MEAN_MOTION_DOT = .5673E-4
MEAN_MOTION_DDOT = 0

CCSDS_OMM_VERS = 2.0
CREATION_DATE  = 
ORIGINATOR     = 

OBJECT_NAME    = ACS3
OBJECT_ID      = 2024-077B
CENTER_NAME    = EARTH
REF_FRAME      = TEME
TIME_SYSTEM    = UTC
MEAN_ELEMENT_THEORY = SGP/SGP4

EPOCH          = 2025-12-13T21:49:34.180896
MEAN_MOTION    = 13.85569397
ECCENTRICITY   = .00772983
INCLINATION    = 97.2661
RA_OF_ASC_NODE = 303.2547
ARG_OF_PERICENTER = 335.5702
MEAN_ANOMALY   = 24.1804

EPHEMERIS_TYPE = 0
CLASSIFICATION_TYPE = U
NORAD_CAT_ID   = 59588
ELEMENT_SET_NO = 999
REV_AT_EPOCH   = 8230
BSTAR          = .27396317E-1
MEAN_MOTION_DOT = .32116E-3
MEAN_MOTION_DDOT = 0

CCSDS_OMM_VERS = 2.0
CREATION_DATE  = 
ORIGINATOR     = 

OBJECT_NAME    = SZ-21 MODULE
OBJECT_ID      = 2025-246C
CENTER_NAME    = EARTH
REF_FRAME      = TEME
TIME_SYSTEM    = UTC
MEAN_ELEMENT_THEORY = SGP/SGP4

EPOCH          = 2025-12-13T05:48:56.217312
MEAN_MOTION    = 15.62521016
ECCENTRICITY   = .00062862
INCLINATION    = 41.4775
RA_OF_ASC_NODE = 12.9802
ARG_OF_PERICENTER = 263.0797
MEAN_ANOMALY   = 96.9328

EPHEMERIS_TYPE = 0
CLASSIFICATION_TYPE = U
NORAD_CAT_ID   = 66515
ELEMENT_SET_NO = 999
REV_AT_EPOCH   = 452
BSTAR          = .43386364E-3
MEAN_MOTION_DOT = .39667E-3
MEAN_MOTION_DDOT = 0

